OBJECT_NAME,OBJECT_ID,EPOCH,MEAN_MOTION,ECCENTRICITY,INCLINATION,RA_OF_ASC_NODE,ARG_OF_PERICENTER,MEAN_ANOMALY,EPHEMERIS_TYPE,CLASSIFICATION_TYPE,NORAD_CAT_ID,ELEMENT_SET_NO,REV_AT_EPOCH,BSTAR,MEAN_MOTION_DOT,MEAN_MOTION_DDOT
SUOMI NPP,2011-061A,2026-06-18T14:37:22.875456,14.19517636,.0001456,98.7953,110.4756,3.3942,356.7244,0,U,37849,999,75864,.47083762E-4,.55E-6,0
YAOGAN-12,2011-066B,2026-06-18T13:50:26.479968,15.26619247,.00088631,97.1134,208.0801,211.3561,148.7152,0,U,37875,999,81225,.27889659E-3,.7245E-4,0
BEIDOU-2 M4,2012-018B,2026-06-16T14:00:59.327136,1.86229375,.00112916,55.6586,304.1100,275.7806,84.0759,0,U,38251,999,9593,0,-.71E-6,0
ARIRANG-3 (KOMPSAT-3),2012-025B,2026-06-18T14:33:31.428864,14.62207188,.00067201,98.1171,127.0421,105.8328,254.3615,0,U,38338,999,75155,.74137601E-4,.327E-5,0
METOP-B,2012-049A,2026-06-18T14:20:19.776768,14.21433119,.00021478,98.6504,221.0686,16.0748,344.0497,0,U,38771,999,71346,.60272217E-4,.88E-6,0
SJ-9A,2012-056A,2026-06-18T13:53:46.764672,14.85480732,.00240224,97.6709,141.4801,251.8038,108.0562,0,U,38860,999,69979,.93220895E-4,.755E-5,0
COSMOS 2484 (RODNIK-S 6),2013-001C,2026-06-18T14:16:44.613120,12.42939349,.00268213,82.5009,221.0175,33.6383,326.6393,0,U,39059,999,60873,.26060124E-3,.46E-6,0
SARAL,2013-009A,2026-06-18T13:51:08.986176,14.32856247,.00006657,98.5557,356.1267,299.5401,60.5716,0,U,39086,999,69580,.37606669E-4,.59E-6,0
STRAND-1,2013-009E,2026-06-18T10:45:45.548640,14.37163853,.00077936,98.3922,349.6518,221.0490,139.0111,0,U,39090,999,69724,.80675814E-4,.197E-5,0
BRITE-AUSTRIA,2013-009F,2026-06-18T07:44:29.219424,14.36542508,.00091905,98.3995,348.7301,232.6910,127.3439,0,U,39091,999,69721,.58245794E-4,.128E-5,0
GAOFEN-1,2013-018A,2026-06-18T14:55:10.693920,14.76538110,.00156814,97.9094,241.6606,261.4713,98.4720,0,U,39150,999,70845,.84852659E-4,.542E-5,0
NEE-01 PEGASO,2013-018B,2026-06-18T08:05:56.562144,14.93664438,.00132204,98.1225,313.5252,155.6183,204.5663,0,U,39151,999,71087,.22456248E-3,.2315E-4,0
PROBA-V,2013-021A,2026-06-18T09:13:21.907776,14.23597149,.00051853,98.3584,147.9318,120.6226,239.5465,0,U,39159,999,68128,.38300589E-4,.46E-6,0
ARIRANG-5 (KOMPSAT-5),2013-042A,2026-06-18T13:30:25.718688,15.04493989,.00054258,97.6200,356.2436,117.1602,243.0178,0,U,39227,999,70406,.3604216E-4,.444E-5,0
GONETS-M 5,2013-048A,2026-06-18T13:31:57.152352,12.42891864,.00161449,82.4828,342.5232,207.2468,152.7766,0,U,39249,999,57905,.91400766E-4,.22E-6,0
GONETS-M 7,2013-048C,2026-06-18T14:34:29.339328,12.42914773,.00169224,82.4895,345.4192,208.5656,151.4498,0,U,39251,999,57901,.23964409E-3,.43E-6,0
FENGYUN 3C,2013-052A,2026-06-18T14:22:01.747776,14.15755348,.00151777,98.4987,143.4086,23.7386,336.4485,0,U,39260,999,65876,.5841242E-4,.73E-6,0
CASSIOPE,2013-055A,2026-06-18T12:57:09.825120,15.25303484,.02923614,80.9137,65.0794,57.9071,305.0185,0,U,39265,999,66787,.47228565E-3,.43358E-3,-.515765E-6
APRIZESAT 7,2013-066A,2026-06-18T08:40:33.168000,14.91566307,.00350896,97.7709,122.5645,205.3037,154.6464,0,U,39416,999,68140,.9927561E-4,.949E-5,0
ZACUBE-1 (TSHEPISOSAT),2013-066B,2026-06-18T08:10:15.916800,15.01194004,.00409492,97.8077,131.6833,243.7163,115.9851,0,U,39417,999,68090,.18680558E-3,.2374E-4,0
APRIZESAT 8,2013-066K,2026-06-18T06:50:14.413056,14.87654398,.00444006,97.8221,116.7374,282.8266,76.7992,0,U,39425,999,67983,.86789853E-4,.746E-5,0
